NORAD_CAT_ID,OBJECT_NAME,OBJECT_TYPE,EPOCH,MEAN_MOTION,ECCENTRICITY,INCLINATION,RA_OF_ASC_NODE,ARG_OF_PERICENTER,MEAN_ANOMALY,BSTAR,MEAN_MOTION_DOT,MEAN_MOTION_DDOT,TLE_LINE0,TLE_LINE1,TLE_LINE2,SEMIMAJOR_AXIS,PERIOD,APOGEE,PERIGEE,DECAYED
49415.0,STARLINK-3159,PAYLOAD,2022-03-02 22:00:00,15.08864257,0.0002197,53.219,328.2158,43.9548,91.8227,-0.0041766999999999,-0.00066196,0.0,0 STARLINK-3159,1 49415U 21104H   22061.91667824 -.00066196  00000-0 -41767-2 0  9992,2 49415  53.2190 328.2158 0002197  43.9548  91.8227 15.08864257 18279,6917.806,95.436,541.191,538.151,0.0
49415.0,STARLINK-3159,PAYLOAD,2022-03-03 14:00:01,15.08801077,0.0002052,53.2185,325.2224,44.5864,114.3617,0.0027683,0.00043998,0.0,0 STARLINK-3159,1 49415U 21104H   22062.58334491  .00043998  00000-0  27683-2 0  9991,2 49415  53.2185 325.2224 0002052  44.5864 114.3617 15.08801077 18378,6917.999,95.44,541.284,538.445,0.0
49415.0,STARLINK-3159,PAYLOAD,2022-03-03 18:00:00,15.08827709,0.0002073,53.2188,324.4744,47.0506,297.6726,0.0008183999999999,0.00012756,0.0,0 STARLINK-3159,1 49415U 21104H   22062.75001157  .00012756  00000-0  81840-3 0  9994,2 49415  53.2188 324.4744 0002073  47.0506 297.6726 15.08827709  3575,6917.918000000002,95.438,541.217,538.349,0.0
49415.0,STARLINK-3159,PAYLOAD,2022-03-04 06:00:02,15.08830547,0.0002276,53.2179,322.2314,42.2291,139.9318,0.00082312,0.00012833,0.0,0 STARLINK-3159,1 49415U 21104H   22063.25002315  .00012833  00000-0  82312-3 0  9998,2 49415  53.2179 322.2314 0002276  42.2291 139.9318 15.08830547 18471,6917.909000000002,95.438,541.349,538.2,0.0
49415.0,STARLINK-3159,PAYLOAD,2022-03-04 14:00:01,15.08818897,0.0002079,53.2177,320.7334,47.6129,146.1467,0.0027987,0.0004451,0.0,0 STARLINK-3159,1 49415U 21104H   22063.58335648  .00044510  00000-0  27987-2 0  9995,2 49415  53.2177 320.7334 0002079  47.6129 146.1467 15.08818897  3590,6917.945,95.439,541.248,538.372,0.0
49415.0,STARLINK-3159,PAYLOAD,2022-03-04 22:00:00,15.08857988,0.0002205,53.2178,319.2385,46.6354,158.6546,-0.0011098,-0.00017917,0.0,0 STARLINK-3159,1 49415U 21104H   22063.91667824 -.00017917  00000-0 -11098-2 0  9995,2 49415  53.2178 319.2385 0002205  46.6354 158.6546 15.08857988  3590,6917.825,95.436,541.216,538.165,0.0
49415.0,STARLINK-3159,PAYLOAD,2022-03-05 06:00:00,15.08868177,0.0002235,53.2172,317.7424,43.9595,172.9351,-0.0026228,-0.00041822,0.0,0 STARLINK-3159,1 49415U 21104H   22064.25001157 -.00041822  00000-0 -26228-2 0  9997,2 49415  53.2172 317.7424 0002235  43.9595 172.9351 15.08868177  3642,6917.794,95.436,541.205,538.113,0.0
49415.0,STARLINK-3159,PAYLOAD,2022-03-05 14:00:01,15.0881604,0.0002035,53.2169,316.2443,48.1485,180.3722,0.0029972,0.00047705,0.0,0 STARLINK-3159,1 49415U 21104H   22064.58334491  .00047705  00000-0  29972-2 0  9996,2 49415  53.2169 316.2443 0002035  48.1485 180.3722 15.08816040 18672,6917.954000000002,95.439,541.226,538.411,0.0
49415.0,STARLINK-3159,PAYLOAD,2022-03-05 22:00:01,15.08861336,0.0002156,53.217,314.7493,46.1784,193.9958,-0.0025634,-0.00040879,0.0,0 STARLINK-3159,1 49415U 21104H   22064.91668981 -.00040879  00000-0 -25634-2 0  9995,2 49415  53.2170 314.7493 0002156  46.1784 193.9958 15.08861336  3613,6917.815,95.436,541.172,538.189,0.0
49415.0,STARLINK-3159,PAYLOAD,2022-03-06 06:00:00,15.08855648,0.0002167,53.2166,313.2531,42.9047,208.8084,-0.0015783,-0.00025331,0.0,0 STARLINK-3159,1 49415U 21104H   22065.25001157 -.00025331  00000-0 -15783-2 0  9999,2 49415  53.2166 313.2531 0002167  42.9047 208.8084 15.08855648 18771,6917.833000000001,95.437,541.197,538.198,0.0
49415.0,STARLINK-3159,PAYLOAD,2022-03-06 14:00:01,15.0881552,0.0001991,53.2165,311.7549,46.8911,216.4459,0.0023596,0.0003744,0.0,0 STARLINK-3159,1 49415U 21104H   22065.58334491  .00037440  00000-0  23596-2 0  9998,2 49415  53.2165 311.7549 0001991  46.8911 216.4459 15.08815520  3588,6917.955,95.439,541.198,538.443,0.0
49415.0,STARLINK-3159,PAYLOAD,2022-03-06 22:00:00,15.0884241,0.0002141,53.2166,310.26,44.1364,230.7825,-0.0004923999999999,-8.117e-05,0.0,0 STARLINK-3159,1 49415U 21104H   22065.91667824 -.00008117  00000-0 -49240-3 0  9990,2 49415  53.2166 310.2600 0002141  44.1364 230.7825 15.08842410 18874,6917.873000000001,95.437,541.219,538.257,0.0
49415.0,STARLINK-3159,PAYLOAD,2022-03-07 12:00:00,15.08819584,0.0001916,53.2167,307.6399,42.6764,162.5417,-8.2506e-05,-1.6e-05,0.0,0 STARLINK-3159,1 49415U 21104H   22066.50001157 -.00001600  00000-0 -82506-4 0  9990,2 49415  53.2167 307.6399 0001916  42.6764 162.5417 15.08819584  3639,6917.943,95.439,541.133,538.482,0.0
49415.0,STARLINK-3159,PAYLOAD,2022-03-07 22:00:00,15.08808278,0.000211,53.2168,305.7707,40.9816,268.6775,-0.0005678,-9.306e-05,0.0,0 STARLINK-3159,1 49415U 21104H   22066.91667824 -.00009306  00000-0 -56780-3 0  9999,2 49415  53.2168 305.7707 0002110  40.9816 268.6775 15.08808278 19021,6917.977,95.44,541.302,538.383,0.0
49415.0,STARLINK-3159,PAYLOAD,2022-03-08 14:00:01,15.08799781,0.0002013,53.2171,302.7763,44.7849,287.995,0.0030678,0.00048821,0.0,0 STARLINK-3159,1 49415U 21104H   22067.58334491  .00048821  00000-0  30678-2 0  9994,2 49415  53.2171 302.7763 0002013  44.7849 287.9950 15.08799781 19122,6918.003000000002,95.44,541.261,538.476,0.0
49415.0,STARLINK-3159,PAYLOAD,2022-03-08 22:00:00,15.0883117,0.0002214,53.2172,301.2816,42.1987,302.1502,-0.00049721,-8.191e-05,0.0,0 STARLINK-3159,1 49415U 21104H   22067.91667824 -.00008191  00000-0 -49721-3 0  9998,2 49415  53.2172 301.2816 0002214  42.1987 302.1502 15.08831170  3590,6917.906999999997,95.438,541.304,538.241,0.0
49415.0,STARLINK-3159,PAYLOAD,2022-03-09 06:00:00,15.08850122,0.0002198,53.2172,299.7849,40.9913,314.9335,-0.0014584,-0.00023431,0.0,0 STARLINK-3159,1 49415U 21104H   22068.25001157 -.00023431  00000-0 -14584-2 0  9999,2 49415  53.2172 299.7849 0002198  40.9913 314.9335 15.08850122 19223,6917.849,95.437,541.235,538.194,0.0
49415.0,STARLINK-3159,PAYLOAD,2022-03-09 14:00:01,15.08822917,0.0002081,53.2175,298.2872,46.8268,320.6917,0.0027724,0.00044091,0.0,0 STARLINK-3159,1 49415U 21104H   22068.58334491  .00044091  00000-0  27724-2 0  9998,2 49415  53.2175 298.2872 0002081  46.8268 320.6917 15.08822917  3612,6917.933000000001,95.439,541.237,538.3580000000002,0.0
49415.0,STARLINK-3159,PAYLOAD,2022-03-09 22:00:01,15.08848332,0.0002276,53.2176,296.7925,43.7209,335.4525,-0.00051281,-8.443e-05,0.0,0 STARLINK-3159,1 49415U 21104H   22068.91668981 -.00008443  00000-0 -51281-3 0  9998,2 49415  53.2176 296.7925 0002276  43.7209 335.4525 15.08848332 19325,6917.855,95.437,541.294,538.145,0.0
49415.0,STARLINK-3159,PAYLOAD,2022-03-10 14:00:01,15.08815772,0.0002024,53.2178,293.7981,46.6834,355.6356,0.0023571,0.000374,0.0,0 STARLINK-3159,1 49415U 21104H   22069.58334491  .00037400  00000-0  23571-2 0  9991,2 49415  53.2178 293.7981 0002024  46.6834 355.6356 15.08815772  3593,6917.954000000002,95.439,541.22,538.419,0.0
49415.0,STARLINK-3159,PAYLOAD,2022-03-10 22:00:01,15.08835963,0.0002216,53.2178,292.3036,43.4017,10.5632,-0.00040642,-6.75e-05,0.0,0 STARLINK-3159,1 49415U 21104H   22069.91668981 -.00006750  00000-0 -40642-3 0  9997,2 49415  53.2178 292.3036 0002216  43.4017  10.5632 15.08835963  3600,6917.893,95.438,541.2909999999998,538.225,0.0
49415.0,STARLINK-3159,PAYLOAD,2022-03-11 06:00:00,15.08858836,0.0002156,53.2174,290.8065,43.228,22.2634,-0.0016635,-0.0002668,0.0,0 STARLINK-3159,1 49415U 21104H   22070.25001157 -.00026680  00000-0 -16635-2 0  9990,2 49415  53.2174 290.8065 0002156  43.2280  22.2634 15.08858836 19539,6917.823,95.436,541.179,538.196,0.0
49415.0,STARLINK-3159,PAYLOAD,2022-03-11 14:00:01,15.0884184,0.000203,53.2176,289.3092,48.697,28.4007,0.0020627,0.00032695,0.0,0 STARLINK-3159,1 49415U 21104H   22070.58334491  .00032695  00000-0  20627-2 0  9993,2 49415  53.2176 289.3092 0002030  48.6970  28.4007 15.08841840  3587,6917.875,95.437,541.144,538.335,0.0
49415.0,STARLINK-3159,PAYLOAD,2022-03-11 22:00:00,15.08863099,0.0002196,53.2174,287.8148,44.285,44.4274,-0.00081882,-0.00013305,0.0,0 STARLINK-3159,1 49415U 21104H   22070.91667824 -.00013305  00000-0 -81882-3 0  9999,2 49415  53.2174 287.8148 0002196  44.2850  44.4274 15.08863099 19639,6917.81,95.436,541.194,538.156,0.0
49415.0,STARLINK-3159,PAYLOAD,2022-03-12 14:00:01,15.08853966,0.000193,53.2171,284.8203,47.5825,64.3521,-0.0012081,-0.00019471,0.0,0 STARLINK-3159,1 49415U 21104H   22071.58334491 -.00019471  00000-0 -12081-2 0  9998,2 49415  53.2171 284.8203 0001930  47.5825  64.3521 15.08853966  3606,6917.8380000000025,95.437,541.038,538.368,0.0
49415.0,STARLINK-3159,PAYLOAD,2022-03-12 22:00:00,15.08820877,0.0002071,53.2169,283.326,41.9218,81.6226,0.00065187,0.00010096,0.0,0 STARLINK-3159,1 49415U 21104H   22071.91667824  .00010096  00000-0  65187-3 0  9992,2 49415  53.2169 283.3260 0002071  41.9218  81.6226 15.08820877  3600,6917.939,95.439,541.237,538.371,0.0
49415.0,STARLINK-3159,PAYLOAD,2022-03-13 06:00:00,15.08845989,0.0001989,53.2164,281.8287,42.5523,92.5636,-0.0015065,-0.00024189,0.0,0 STARLINK-3159,1 49415U 21104H   22072.25001157 -.00024189  00000-0 -15065-2 0  9990,2 49415  53.2164 281.8287 0001989  42.5523  92.5636 15.08845989 19839,6917.861999999999,95.437,541.1030000000002,538.351,0.0
49415.0,STARLINK-3159,PAYLOAD,2022-03-13 14:00:01,15.08833448,0.0001937,53.2166,280.3316,48.1725,98.5235,0.000938,0.00014669,0.0,0 STARLINK-3159,1 49415U 21104H   22072.58334491  .00014669  00000-0  93800-3 0  9990,2 49415  53.2166 280.3316 0001937  48.1725  98.5235 15.08833448  3614,6917.9,95.438,541.105,538.425,0.0
49415.0,STARLINK-3159,PAYLOAD,2022-03-13 20:00:01,15.08843552,0.0002097,53.2162,279.2109,43.9002,21.4904,-0.0010013,-0.00016191,0.0,0 STARLINK-3159,1 49415U 21104H   22072.83334491 -.00016191  00000-0 -10013-2 0  9996,2 49415  53.2162 279.2109 0002097  43.9002  21.4904 15.08843552 19922,6917.87,95.437,541.185,538.284,0.0
